[{"OBJECT_NAME":"STARLINK-3225","OBJECT_ID":"2021-115P","EPOCH":"2026-03-09T12:56:06.863712","MEAN_MOTION":15.0882914,"ECCENTRICITY":0.00016693,"INCLINATION":53.2171,"RA_OF_ASC_NODE":149.7979,"ARG_OF_PERICENTER":90.6292,"MEAN_ANOMALY":269.4892,"EPHEMERIS_TYPE":0,"CLASSIFICATION_TYPE":"U","NORAD_CAT_ID":49737,"ELEMENT_SET_NO":999,"REV_AT_EPOCH":23551,"BSTAR":7.4690208e-5,"MEAN_MOTION_DOT":9.01e-6,"MEAN_MOTION_DDOT":0},{"OBJECT_NAME":"PRSC-S1","OBJECT_ID":"2025-164A","EPOCH":"2026-03-09T14:34:55.095168","MEAN_MOTION":15.0891951,"ECCENTRICITY":0.0004466,"INCLINATION":41.129,"RA_OF_ASC_NODE":129.3637,"ARG_OF_PERICENTER":348.3012,"MEAN_ANOMALY":11.7698,"EPHEMERIS_TYPE":0,"CLASSIFICATION_TYPE":"U","NORAD_CAT_ID":65055,"ELEMENT_SET_NO":999,"REV_AT_EPOCH":3340,"BSTAR":0.00046631,"MEAN_MOTION_DOT":7.316e-5,"MEAN_MOTION_DDOT":0}]
